*******************************************************************************
JPL/HORIZONS               1001 Gaussia (A923 PD)          2023-Sep-04 11:09:37
Rec #:    1001 (+COV) Soln.date: 2023-Aug-25_04:39:18   # obs: 6165 (1908-2023)
 
IAU76/J2000 helio. ecliptic osc. elements (au, days, deg., period=Julian yrs):
 
  EPOCH=  2457231.5 ! 2015-Jul-28.00 (TDB)         Residual RMS= .24241
   EC= .1269070004982276   QR= 2.801665944439868   TP= 2457293.0169327874
   OM= 259.3449827616978   W=  142.2259587318187   IN= 9.295808497170071
   A= 3.208897501226821    MA= 349.452124868247    ADIST= 3.616129058013775
   PER= 5.74833            N= .171462956           ANGMOM= .030565651
   DAN= 3.50923            DDN= 2.86938            L= 41.9370534
   B= 5.6784818            MOID= 1.81836998        TP= 2015-Sep-27.5169327874
 
Asteroid physical parameters (km, seconds, rotational period in hours):
   GM= n.a.                RAD= 36.3555            ROTPER= 20.99
   H= 9.75                 G= .150                 B-V= .689
                           ALBEDO= .041            STYP= PC

ASTEROID comments: 
1: soln ref.= JPL#82, OCC=0
2: source=ORB
*******************************************************************************


*******************************************************************************
Ephemeris / API_USER Mon Sep  4 11:09:38 2023 Pasadena, USA      / Horizons
*******************************************************************************
Target body name: 1001 Gaussia (A923 PD)          {source: JPL#82}
Center body name: Solar System Barycenter (0)     {source: DE441}
Center-site name: BODY CENTER
*******************************************************************************
Start time      : A.D. 2023-Aug-12 00:00:00.0000 TDB
Stop  time      : A.D. 2023-Aug-13 00:00:00.0000 TDB
Step-size       : 2880 minutes
*******************************************************************************
Center geodetic : 0.0, 0.0, 0.0                   {E-lon(deg),Lat(deg),Alt(km)}
Center cylindric: 0.0, 0.0, 0.0                   {E-lon(deg),Dxy(km),Dz(km)}
Center radii    : (undefined)
Small perturbers: Yes                             {source: SB441-N16}
Output units    : KM-S
Calendar mode   : Mixed Julian/Gregorian
Output type     : GEOMETRIC cartesian states
Output format   : 2 (position and velocity)
Reference frame : Ecliptic of J2000.0
*******************************************************************************
Initial IAU76/J2000 heliocentric ecliptic osculating elements (au, days, deg.):
  EPOCH=  2457231.5 ! 2015-Jul-28.00 (TDB)         Residual RMS= .24241        
   EC= .1269070004982276   QR= 2.801665944439868   TP= 2457293.0169327874      
   OM= 259.3449827616978   W=  142.2259587318187   IN= 9.295808497170071       
  Equivalent ICRF heliocentric cartesian coordinates (au, au/d):
   X= 2.456163597753343E+00  Y= 1.069299968896240E+00  Z= 8.507058721052413E-01
  VX=-5.251284653529866E-03 VY= 9.129312160077282E-03 VZ= 2.725304531006130E-03
Asteroid physical parameters (km, seconds, rotational period in hours):        
   GM= n.a.                RAD= 36.3555            ROTPER= 20.99               
   H= 9.75                 G= .150                 B-V= .689                   
                           ALBEDO= .041            STYP= PC                    
*******************************************************************************
JDTDB
   X     Y     Z
   VX    VY    VZ
*******************************************************************************
$$SOE
2460168.500000000 = A.D. 2023-Aug-12 00:00:00.0000 TDB 
 X =-5.146679963609701E+08 Y =-3.423873213312437E+07 Z =-8.160416133081344E+07
 VX=-4.262005177016679E-01 VY=-1.527596490254855E+01 VZ= 4.034060314685961E-01
$$EOE
*******************************************************************************
 
TIME

  Barycentric Dynamical Time ("TDB" or T_eph) output was requested. This
continuous coordinate time is equivalent to the relativistic proper time
of a clock at rest in a reference frame co-moving with the solar system
barycenter but outside the system's gravity well. It is the independent
variable in the solar system relativistic equations of motion.

  TDB runs at a uniform rate of one SI second per second and is independent
of irregularities in Earth's rotation.
 
CALENDAR SYSTEM

  Mixed calendar mode was active such that calendar dates after AD 1582-Oct-15
(if any) are in the modern Gregorian system. Dates prior to 1582-Oct-5 (if any)
are in the Julian calendar system, which is automatically extended for dates
prior to its adoption on 45-Jan-1 BC.  The Julian calendar is useful for
matching historical dates. The Gregorian calendar more accurately corresponds
to the Earth's orbital motion and seasons. A "Gregorian-only" calendar mode is
available if such physical events are the primary interest.

REFERENCE FRAME AND COORDINATES

  Ecliptic at the standard reference epoch

    Reference epoch: J2000.0
    X-Y plane: adopted Earth orbital plane at the reference epoch
               Note: IAU76 obliquity of 84381.448 arcseconds wrt ICRF X-Y plane
    X-axis   : ICRF
    Z-axis   : perpendicular to the X-Y plane in the directional (+ or -) sense
               of Earth's north pole at the reference epoch.

  Symbol meaning:

    JDTDB    Julian Day Number, Barycentric Dynamical Time
      X      X-component of position vector (km)
      Y      Y-component of position vector (km)
      Z      Z-component of position vector (km)
      VX     X-component of velocity vector (km/sec)                           
      VY     Y-component of velocity vector (km/sec)                           
      VZ     Z-component of velocity vector (km/sec)                           

ABERRATIONS AND CORRECTIONS

 Geometric state vectors have NO corrections or aberrations applied.

Computations by ...

    Solar System Dynamics Group, Horizons On-Line Ephemeris System
    4800 Oak Grove Drive, Jet Propulsion Laboratory
    Pasadena, CA  91109   USA

    General site: https://ssd.jpl.nasa.gov/
    Mailing list: https://ssd.jpl.nasa.gov/email_list.html
    System news : https://ssd.jpl.nasa.gov/horizons/news.html
    User Guide  : https://ssd.jpl.nasa.gov/horizons/manual.html
    Connect     : browser        https://ssd.jpl.nasa.gov/horizons/app.html#/x
                  API            https://ssd-api.jpl.nasa.gov/doc/horizons.html
                  command-line   telnet ssd.jpl.nasa.gov 6775
                  e-mail/batch   https://ssd.jpl.nasa.gov/ftp/ssd/hrzn_batch.txt
                  scripts        https://ssd.jpl.nasa.gov/ftp/ssd/SCRIPTS
    Author      : Jon.D.Giorgini@jpl.nasa.gov
*******************************************************************************
